{"type": "FeatureCollection", "features": [ {"type": "Feature", "properties": {"norad_id": 35020, "name": "COSMOS 2251 DEB", "group": "cosmos-2251-debris", "lat": 32.04179850316582, "lon": -157.44706754987183, "alt_km": 679.1536068289079, "timestamp": "2025-12-16T05:49:09.609073+00:00", "meta": {"OBJECT_NAME": "COSMOS 2251 DEB", "OBJECT_ID": "1993-036AGH", "EPOCH": "2025-12-13T23:30:11.436192", "MEAN_MOTION": 14.62807678, "ECCENTRICITY": 0.00911998, "INCLINATION": 74.0461, "RA_OF_ASC_NODE": 196.573, "ARG_OF_PERICENTER": 310.4261, "MEAN_ANOMALY": 48.8974, "EPHEMERIS_TYPE": 0, "CLASSIFICATION_TYPE": "U", "NORAD_CAT_ID": 35020, "ELEMENT_SET_NO": 999, "REV_AT_EPOCH": 88256, "BSTAR": 0.00019069928, "MEAN_MOTION_DOT": 9.99e-06, "MEAN_MOTION_DDOT": 0}, "tle": {"line1": "1 35020U 93036AGH 25347.97929903  .00000999  00000+0  19070-3 0  9996", "line2": "2 35020  74.0461 196.5730 0091199 310.4261  48.8974 14.62807678882569"}}, "geometry": {"type": "Point", "coordinates": [-157.44706754987183, 32.04179850316582]}}, {"type": "Feature", "properties": {"norad_id": 35022, "name": "COSMOS 2251 DEB", "group": "cosmos-2251-debris", "lat": 55.34892646438245, "lon": -20.28474065091236, "alt_km": 687.6432164804346, "timestamp": "2025-12-16T05:49:09.609082+00:00", "meta": {"OBJECT_NAME": "COSMOS 2251 DEB", "OBJECT_ID": "1993-036AGK", "EPOCH": "2025-12-15T14:45:27.251136", "MEAN_MOTION": 14.60846809, "ECCENTRICITY": 0.00465822, "INCLINATION": 74.027, "RA_OF_ASC_NODE": 316.4327, "ARG_OF_PERICENTER": 155.4398, "MEAN_ANOMALY": 204.9001, "EPHEMERIS_TYPE": 0, "CLASSIFICATION_TYPE": "U", "NORAD_CAT_ID": 35022, "ELEMENT_SET_NO": 999, "REV_AT_EPOCH": 59185, "BSTAR": 0.00033959453, "MEAN_MOTION_DOT": 1.655e-05, "MEAN_MOTION_DDOT": 0}, "tle": {"line1": "1 35022U 93036AGK 25349.61489874  .00001655  00000+0  33959-3 0  9991", "line2": "2 35022  74.0270 316.4327 0046582 155.4398 204.9001 14.60846809591850"}}, "geometry": {"type": "Point", "coordinates": [-20.28474065091236, 55.34892646438245]}}, {"type": "Feature", "properties": {"norad_id": 35023, "name": "COSMOS 2251 DEB", "group": "cosmos-2251-debris", "lat": -50.43159602612101, "lon": -174.74438536640235, "alt_km": 566.7490385357678, "timestamp": "2025-12-16T05:49:09.609092+00:00", "meta": {"OBJECT_NAME": "COSMOS 2251 DEB", "OBJECT_ID": "1993-036AGL", "EPOCH": "2025-12-15T20:29:17.705760", "MEAN_MOTION": 14.95203109, "ECCENTRICITY": 0.00338693, "INCLINATION": 74.0373, "RA_OF_ASC_NODE": 206.3061, "ARG_OF_PERICENTER": 283.6285, "MEAN_ANOMALY": 91.0894, "EPHEMERIS_TYPE": 0, "CLASSIFICATION_TYPE": "U", "NORAD_CAT_ID": 35023, "ELEMENT_SET_NO": 999, "REV_AT_EPOCH": 88326, "BSTAR": 0.00084293913, "MEAN_MOTION_DOT": 9.345e-05, "MEAN_MOTION_DDOT": 0}, "tle": {"line1": "1 35023U 93036AGL 25349.85367715  .00009345  00000+0  84294-3 0  9999", "line2": "2 35023  74.0373 206.3061 0033869 283.6285  91.0894 14.95203109883262"}}, "geometry": {"type": "Point", "coordinates": [-174.74438536640235, -50.43159602612101]}}, {"type": "Feature", "properties": {"norad_id": 35025, "name": "COSMOS 2251 DEB", "group": "cosmos-2251-debris", "lat": 71.4574509521692, "lon": 176.87250114624055, "alt_km": 684.3642706467435, "timestamp": "2025-12-16T05:49:09.609102+00:00", "meta": {"OBJECT_NAME": "COSMOS 2251 DEB", "OBJECT_ID": "1993-036AGN", "EPOCH": "2025-12-15T14:41:53.784384", "MEAN_MOTION": 14.72723882, "ECCENTRICITY": 0.00852985, "INCLINATION": 73.9389, "RA_OF_ASC_NODE": 57.2992, "ARG_OF_PERICENTER": 329.5046, "MEAN_ANOMALY": 30.1179, "EPHEMERIS_TYPE": 0, "CLASSIFICATION_TYPE": "U", "NORAD_CAT_ID": 35025, "ELEMENT_SET_NO": 999, "REV_AT_EPOCH": 88685, "BSTAR": 0.0002696379, "MEAN_MOTION_DOT": 1.786e-05, "MEAN_MOTION_DDOT": 0}, "tle": {"line1": "1 35025U 93036AGN 25349.61242806  .00001786  00000+0  26964-3 0  9999", "line2": "2 35025  73.9389  57.2992 0085298 329.5046  30.1179 14.72723882886851"}}, "geometry": {"type": "Point", "coordinates": [176.87250114624055, 71.4574509521692]}}, {"type": "Feature", "properties": {"norad_id": 35026, "name": "COSMOS 2251 DEB", "group": "cosmos-2251-debris", "lat": 73.97303420342664, "lon": 36.94527194340289, "alt_km": 652.9025000480005, "timestamp": "2025-12-16T05:49:09.609112+00:00", "meta": {"OBJECT_NAME": "COSMOS 2251 DEB", "OBJECT_ID": "1993-036AGP", "EPOCH": "2025-12-13T06:41:51.254880", "MEAN_MOTION": 14.53623986, "ECCENTRICITY": 0.00823222, "INCLINATION": 74.0467, "RA_OF_ASC_NODE": 317.7836, "ARG_OF_PERICENTER": 71.0972, "MEAN_ANOMALY": 355.7631, "EPHEMERIS_TYPE": 0, "CLASSIFICATION_TYPE": "U", "NORAD_CAT_ID": 35026, "ELEMENT_SET_NO": 999, "REV_AT_EPOCH": 88151, "BSTAR": 0.0001179875, "MEAN_MOTION_DOT": 4.86e-06, "MEAN_MOTION_DDOT": 0}, "tle": {"line1": "1 35026U 93036AGP 25347.27906545  .00000486  00000+0  11799-3 0  9993", "line2": "2 35026  74.0467 317.7836 0082322  71.0972 355.7631 14.53623986881514"}}, "geometry": {"type": "Point", "coordinates": [36.94527194340289, 73.97303420342664]}}, {"type": "Feature", "properties": {"norad_id": 35028, "name": "COSMOS 2251 DEB", "group": "cosmos-2251-debris", "lat": -54.28528743904454, "lon": 107.7939106064852, "alt_km": 765.596435955561, "timestamp": "2025-12-16T05:49:09.609122+00:00", "meta": {"OBJECT_NAME": "COSMOS 2251 DEB", "OBJECT_ID": "1993-036AGR", "EPOCH": "2025-12-13T04:31:14.272896", "MEAN_MOTION": 14.56570709, "ECCENTRICITY": 0.00824622, "INCLINATION": 74.0384, "RA_OF_ASC_NODE": 270.1287, "ARG_OF_PERICENTER": 43.6868, "MEAN_ANOMALY": 26.0271, "EPHEMERIS_TYPE": 0, "CLASSIFICATION_TYPE": "U", "NORAD_CAT_ID": 35028, "ELEMENT_SET_NO": 999, "REV_AT_EPOCH": 88292, "BSTAR": 0.0001683276, "MEAN_MOTION_DOT": 7.54e-06, "MEAN_MOTION_DDOT": 0}, "tle": {"line1": "1 35028U 93036AGR 25347.18835964  .00000754  00000+0  16833-3 0  9993", "line2": "2 35028  74.0384 270.1287 0082462  43.6868  26.0271 14.56570709882921"}}, "geometry": {"type": "Point", "coordinates": [107.7939106064852, -54.28528743904454]}}, {"type": "Feature", "properties": {"norad_id": 35031, "name": "COSMOS 2251 DEB", "group": "cosmos-2251-debris", "lat": -71.85108805501488, "lon": -168.01475669834895, "alt_km": 765.7029430375323, "timestamp": "2025-12-16T05:49:09.609132+00:00", "meta": {"OBJECT_NAME": "COSMOS 2251 DEB", "OBJECT_ID": "1993-036AGU", "EPOCH": "2025-12-15T10:09:49.353696", "MEAN_MOTION": 14.38296815, "ECCENTRICITY": 0.00189775, "INCLINATION": 74.0382, "RA_OF_ASC_NODE": 254.3184, "ARG_OF_PERICENTER": 347.2171, "MEAN_ANOMALY": 12.8499, "EPHEMERIS_TYPE": 0, "CLASSIFICATION_TYPE": "U", "NORAD_CAT_ID": 35031, "ELEMENT_SET_NO": 999, "REV_AT_EPOCH": 65322, "BSTAR": 0.00017769599, "MEAN_MOTION_DOT": 5.15e-06, "MEAN_MOTION_DDOT": 0}, "tle": {"line1": "1 35031U 93036AGU 25349.42348789  .00000515  00000+0  17770-3 0  9996", "line2": "2 35031  74.0382 254.3184 0018977 347.2171  12.8499 14.38296815653220"}}, "geometry": {"type": "Point", "coordinates": [-168.01475669834895, -71.85108805501488]}}, {"type": "Feature", "properties": {"norad_id": 35032, "name": "COSMOS 2251 DEB", "group": "cosmos-2251-debris", "lat": 39.818024388097015, "lon": 14.510758701775003, "alt_km": 741.2050394721427, "timestamp": "2025-12-16T05:49:09.609143+00:00", "meta": {"OBJECT_NAME": "COSMOS 2251 DEB", "OBJECT_ID": "1993-036AGV", "EPOCH": "2025-12-14T19:52:23.160576", "MEAN_MOTION": 14.58745968, "ECCENTRICITY": 0.00682524, "INCLINATION": 73.8521, "RA_OF_ASC_NODE": 3.2556, "ARG_OF_PERICENTER": 214.2465, "MEAN_ANOMALY": 322.9329, "EPHEMERIS_TYPE": 0, "CLASSIFICATION_TYPE": "U", "NORAD_CAT_ID": 35032, "ELEMENT_SET_NO": 999, "REV_AT_EPOCH": 87704, "BSTAR": 0.00078629942, "MEAN_MOTION_DOT": 3.761e-05, "MEAN_MOTION_DDOT": 0}, "tle": {"line1": "1 35032U 93036AGV 25348.82804584  .00003761  00000+0  78630-3 0  9998", "line2": "2 35032  73.8521   3.2556 0068252 214.2465 322.9329 14.58745968877042"}}, "geometry": {"type": "Point", "coordinates": [14.510758701775003, 39.818024388097015]}}, {"type": "Feature", "properties": {"norad_id": 35033, "name": "COSMOS 2251 DEB", "group": "cosmos-2251-debris", "lat": -31.3282133070564, "lon": 159.9454554937015, "alt_km": 721.8093729578995, "timestamp": "2025-12-16T05:49:09.609153+00:00", "meta": {"OBJECT_NAME": "COSMOS 2251 DEB", "OBJECT_ID": "1993-036AGW", "EPOCH": "2025-12-14T19:13:10.523136", "MEAN_MOTION": 14.50941129, "ECCENTRICITY": 0.00144614, "INCLINATION": 74.0257, "RA_OF_ASC_NODE": 172.6985, "ARG_OF_PERICENTER": 279.0961, "MEAN_ANOMALY": 80.8563, "EPHEMERIS_TYPE": 0, "CLASSIFICATION_TYPE": "U", "NORAD_CAT_ID": 35033, "ELEMENT_SET_NO": 999, "REV_AT_EPOCH": 65957, "BSTAR": 0.00063074773, "MEAN_MOTION_DOT": 2.468e-05, "MEAN_MOTION_DDOT": 0}, "tle": {"line1": "1 35033U 93036AGW 25348.80081624  .00002468  00000+0  63075-3 0  9999", "line2": "2 35033  74.0257 172.6985 0014461 279.0961  80.8563 14.50941129659577"}}, "geometry": {"type": "Point", "coordinates": [159.9454554937015, -31.3282133070564]}}, {"type": "Feature", "properties": {"norad_id": 35038, "name": "COSMOS 2251 DEB", "group": "cosmos-2251-debris", "lat": -31.42680398598948, "lon": 26.26755772216487, "alt_km": 762.3977348037079, "timestamp": "2025-12-16T05:49:09.609163+00:00", "meta": {"OBJECT_NAME": "COSMOS 2251 DEB", "OBJECT_ID": "1993-036AHB", "EPOCH": "2025-12-15T13:49:36.990048", "MEAN_MOTION": 14.25163813, "ECCENTRICITY": 0.0114051, "INCLINATION": 74.1077, "RA_OF_ASC_NODE": 37.4893, "ARG_OF_PERICENTER": 20.4917, "MEAN_ANOMALY": 130.3996, "EPHEMERIS_TYPE": 0, "CLASSIFICATION_TYPE": "U", "NORAD_CAT_ID": 35038, "ELEMENT_SET_NO": 999, "REV_AT_EPOCH": 85609, "BSTAR": 0.00092650629, "MEAN_MOTION_DOT": 2.304e-05, "MEAN_MOTION_DDOT": 0}, "tle": {"line1": "1 35038U 93036AHB 25349.57612257  .00002304  00000+0  92651-3 0  9992", "line2": "2 35038  74.1077  37.4893 0114051  20.4917 130.3996 14.25163813856099"}}, "geometry": {"type": "Point", "coordinates": [26.26755772216487, -31.42680398598948]}}]}